[{"OBJECT_NAME":"STARLINK-3813","OBJECT_ID":"2022-049AH","EPOCH":"2026-03-09T04:14:08.384352","MEAN_MOTION":15.08838651,"ECCENTRICITY":0.00013729,"INCLINATION":53.2177,"RA_OF_ASC_NODE":51.4238,"ARG_OF_PERICENTER":91.1282,"MEAN_ANOMALY":268.9867,"EPHEMERIS_TYPE":0,"CLASSIFICATION_TYPE":"U","NORAD_CAT_ID":52482,"ELEMENT_SET_NO":999,"REV_AT_EPOCH":21231,"BSTAR":3.372545e-5,"MEAN_MOTION_DOT":2.49e-6,"MEAN_MOTION_DDOT":0},{"OBJECT_NAME":"JILIN-01 KUANFU 02B 2","OBJECT_ID":"2024-169B","EPOCH":"2026-03-09T21:55:18.103008","MEAN_MOTION":15.09238424,"ECCENTRICITY":0.0011661,"INCLINATION":97.5565,"RA_OF_ASC_NODE":159.2927,"ARG_OF_PERICENTER":15.7533,"MEAN_ANOMALY":344.4056,"EPHEMERIS_TYPE":0,"CLASSIFICATION_TYPE":"U","NORAD_CAT_ID":61190,"ELEMENT_SET_NO":999,"REV_AT_EPOCH":8085,"BSTAR":0.0003793675,"MEAN_MOTION_DOT":5.983e-5,"MEAN_MOTION_DDOT":0}]
